ONEWEB-0512             
1 54130U 22138T   24185.79648089 -.00000011  00000+0 -60408-4 0  9995
2 54130  87.9153  86.9395 0002477  74.5851 285.5555 13.19728169 82718
ONEWEB-0513             
1 54131U 22138U   24185.76726540  .00000062  00000+0  12140-3 0  9995
2 54131  87.9150  86.9394 0002565  79.5066 280.6356 13.19726430 82596
ONEWEB-0514             
1 54132U 22138V   24185.96391226  .00000030  00000+0  42696-4 0  9992
2 54132  87.9147  86.8953 0001968  79.6937 280.4418 13.19727736 82752
ONEWEB-0515             
1 54133U 22138W   24185.94442989 -.00000002  00000+0 -37688-4 0  9990
2 54133  87.9200  56.3147 0000872  61.0737 299.0484 13.20772336 85150
ONEWEB-0516             
1 54134U 22138X   24185.78701164  .00000005  00000+0 -19325-4 0  9996
2 54134  87.9152  86.9428 0001972  74.2119 285.9231 13.19725242 82737
ONEWEB-0517             
1 54135U 22138Y   24185.76647312 -.00000092  00000+0 -26196-3 0  9999
2 54135  87.9145  86.9306 0002083  89.8997 270.2375 13.19725806 82737
ONEWEB-0518             
1 54136U 22138Z   24185.78542504 -.00000026  00000+0 -98538-4 0  9996
2 54136  87.9154  86.9410 0002025  80.2051 279.9310 13.19726722 82739
ONEWEB-0519             
1 54137U 22138AA  24185.96233318  .00000050  00000+0  92486-4 0  9998
2 54137  87.9146  86.8872 0002372  80.1627 279.9773 13.19727500 82766
